[{"OBJECT_NAME":"ONEWEB-0709","OBJECT_ID":"2023-004AJ","EPOCH":"2026-04-22T04:51:36.742176","MEAN_MOTION":13.11418731,"ECCENTRICITY":0.0002023,"INCLINATION":87.8924,"RA_OF_ASC_NODE":32.2108,"ARG_OF_PERICENTER":53.2983,"MEAN_ANOMALY":306.833,"EPHEMERIS_TYPE":0,"CLASSIFICATION_TYPE":"U","NORAD_CAT_ID":55172,"ELEMENT_SET_NO":999,"REV_AT_EPOCH":15853,"BSTAR":-0.0014191000000000002,"MEAN_MOTION_DOT":-4.9e-06,"MEAN_MOTION_DDOT":0.0},{"OBJECT_NAME":"ONEWEB-0710","OBJECT_ID":"2023-004AK","EPOCH":"2026-04-22T03:54:33.576768","MEAN_MOTION":13.17648251,"ECCENTRICITY":0.0001661,"INCLINATION":87.9183,"RA_OF_ASC_NODE":16.9973,"ARG_OF_PERICENTER":82.5113,"MEAN_ANOMALY":277.6207,"EPHEMERIS_TYPE":0,"CLASSIFICATION_TYPE":"U","NORAD_CAT_ID":55173,"ELEMENT_SET_NO":999,"REV_AT_EPOCH":16020,"BSTAR":0.00013951,"MEAN_MOTION_DOT":6.7e-07,"MEAN_MOTION_DDOT":0.0},{"OBJECT_NAME":"ONEWEB-0711","OBJECT_ID":"2023-004AL","EPOCH":"2026-04-22T04:10:06.630240","MEAN_MOTION":13.11415002,"ECCENTRICITY":0.0001319,"INCLINATION":87.8919,"RA_OF_ASC_NODE":32.2025,"ARG_OF_PERICENTER":98.5466,"MEAN_ANOMALY":261.5811,"EPHEMERIS_TYPE":0,"CLASSIFICATION_TYPE":"U","NORAD_CAT_ID":55174,"ELEMENT_SET_NO":999,"REV_AT_EPOCH":15849,"BSTAR":-0.00055572,"MEAN_MOTION_DOT":-1.84e-06,"MEAN_MOTION_DDOT":0.0},{"OBJECT_NAME":"ONEWEB-0713","OBJECT_ID":"2023-004AM","EPOCH":"2026-04-22T06:26:49.742592","MEAN_MOTION":13.11416938,"ECCENTRICITY":0.0001547,"INCLINATION":87.8937,"RA_OF_ASC_NODE":32.1834,"ARG_OF_PERICENTER":87.5747,"MEAN_ANOMALY":272.5558,"EPHEMERIS_TYPE":0,"CLASSIFICATION_TYPE":"U","NORAD_CAT_ID":55175,"ELEMENT_SET_NO":999,"REV_AT_EPOCH":15849,"BSTAR":-0.00071744,"MEAN_MOTION_DOT":-2.42e-06,"MEAN_MOTION_DDOT":0.0},{"OBJECT_NAME":"ONEWEB-0715","OBJECT_ID":"2023-004AN","EPOCH":"2026-04-22T06:19:30.236160","MEAN_MOTION":13.11416979,"ECCENTRICITY":0.0001557,"INCLINATION":87.8934,"RA_OF_ASC_NODE":32.1835,"ARG_OF_PERICENTER":55.8303,"MEAN_ANOMALY":304.2973,"EPHEMERIS_TYPE":0,"CLASSIFICATION_TYPE":"U","NORAD_CAT_ID":55176,"ELEMENT_SET_NO":999,"REV_AT_EPOCH":15853,"BSTAR":-0.0014271000000000002,"MEAN_MOTION_DOT":-4.93e-06,"MEAN_MOTION_DDOT":0.0},{"OBJECT_NAME":"ONEWEB-0716","OBJECT_ID":"2023-004AP","EPOCH":"2026-04-22T05:34:10.860960","MEAN_MOTION":13.17647801,"ECCENTRICITY":0.0002072,"INCLINATION":87.9181,"RA_OF_ASC_NODE":16.9848,"ARG_OF_PERICENTER":79.2375,"MEAN_ANOMALY":280.899,"EPHEMERIS_TYPE":0,"CLASSIFICATION_TYPE":"U","NORAD_CAT_ID":55177,"ELEMENT_SET_NO":999,"REV_AT_EPOCH":16021,"BSTAR":0.00026149,"MEAN_MOTION_DOT":1.14e-06,"MEAN_MOTION_DDOT":0.0},{"OBJECT_NAME":"ONEWEB-0717","OBJECT_ID":"2023-004AQ","EPOCH":"2026-04-22T03:20:32.068320","MEAN_MOTION":13.17647821,"ECCENTRICITY":0.000128,"INCLINATION":87.9195,"RA_OF_ASC_NODE":16.9864,"ARG_OF_PERICENTER":93.7493,"MEAN_ANOMALY":266.3785,"EPHEMERIS_TYPE":0,"CLASSIFICATION_TYPE":"U","NORAD_CAT_ID":55178,"ELEMENT_SET_NO":999,"REV_AT_EPOCH":16025,"BSTAR":0.00020772,"MEAN_MOTION_DOT":9.4e-07,"MEAN_MOTION_DDOT":0.0},{"OBJECT_NAME":"ONEWEB-0719","OBJECT_ID":"2023-004AR","EPOCH":"2026-04-22T05:24:27.687744","MEAN_MOTION":13.17648285,"ECCENTRICITY":0.0001986,"INCLINATION":87.919,"RA_OF_ASC_NODE":16.9503,"ARG_OF_PERICENTER":82.8547,"MEAN_ANOMALY":277.281,"EPHEMERIS_TYPE":0,"CLASSIFICATION_TYPE":"U","NORAD_CAT_ID":55179,"ELEMENT_SET_NO":999,"REV_AT_EPOCH":16021,"BSTAR":0.0002939,"MEAN_MOTION_DOT":1.27e-06,"MEAN_MOTION_DDOT":0.0},{"OBJECT_NAME":"ONEWEB-0530","OBJECT_ID":"2023-029A","EPOCH":"2026-04-21T22:54:42.625728","MEAN_MOTION":13.20773509,"ECCENTRICITY":0.0001752,"INCLINATION":87.9125,"RA_OF_ASC_NODE":285.6978,"ARG_OF_PERICENTER":110.8848,"MEAN_ANOMALY":249.2473,"EPHEMERIS_TYPE":0,"CLASSIFICATION_TYPE":"U","NORAD_CAT_ID":55796,"ELEMENT_SET_NO":999,"REV_AT_EPOCH":15372,"BSTAR":-3.7745000000000005e-05,"MEAN_MOTION_DOT":-2e-08,"MEAN_MOTION_DDOT":0.0},{"OBJECT_NAME":"ONEWEB-0534","OBJECT_ID":"2023-029B","EPOCH":"2026-04-21T22:36:31.442112","MEAN_MOTION":13.20773142,"ECCENTRICITY":0.0001915,"INCLINATION":87.9131,"RA_OF_ASC_NODE":285.6994,"ARG_OF_PERICENTER":93.0326,"MEAN_ANOMALY":267.1026,"EPHEMERIS_TYPE":0,"CLASSIFICATION_TYPE":"U","NORAD_CAT_ID":55797,"ELEMENT_SET_NO":999,"REV_AT_EPOCH":15372,"BSTAR":-0.00024697,"MEAN_MOTION_DOT":-8.7e-07,"MEAN_MOTION_DDOT":0.0},{"OBJECT_NAME":"ONEWEB-0556","OBJECT_ID":"2023-029C","EPOCH":"2026-04-21T22:45:39.169728","MEAN_MOTION":13.20770833,"ECCENTRICITY":0.0002562,"INCLINATION":87.9126,"RA_OF_ASC_NODE":285.6993,"ARG_OF_PERICENTER":104.161,"MEAN_ANOMALY":255.9808,"EPHEMERIS_TYPE":0,"CLASSIFICATION_TYPE":"U","NORAD_CAT_ID":55798,"ELEMENT_SET_NO":999,"REV_AT_EPOCH":15372,"BSTAR":1.4808e-05,"MEAN_MOTION_DOT":1.9e-07,"MEAN_MOTION_DDOT":0.0},{"OBJECT_NAME":"ONEWEB-0562","OBJECT_ID":"2023-029D","EPOCH":"2026-04-21T22:27:25.922016","MEAN_MOTION":13.20773521,"ECCENTRICITY":0.000213,"INCLINATION":87.9128,"RA_OF_ASC_NODE":285.6824,"ARG_OF_PERICENTER":118.2271,"MEAN_ANOMALY":241.9078,"EPHEMERIS_TYPE":0,"CLASSIFICATION_TYPE":"U","NORAD_CAT_ID":55799,"ELEMENT_SET_NO":999,"REV_AT_EPOCH":15372,"BSTAR":-0.00014554,"MEAN_MOTION_DOT":-4.6e-07,"MEAN_MOTION_DDOT":0.0},{"OBJECT_NAME":"ONEWEB-0563","OBJECT_ID":"2023-029E","EPOCH":"2026-04-21T22:18:22.247424","MEAN_MOTION":13.20771912,"ECCENTRICITY":0.000204,"INCLINATION":87.9128,"RA_OF_ASC_NODE":285.7139,"ARG_OF_PERICENTER":92.5123,"MEAN_ANOMALY":267.6244,"EPHEMERIS_TYPE":0,"CLASSIFICATION_TYPE":"U","NORAD_CAT_ID":55800,"ELEMENT_SET_NO":999,"REV_AT_EPOCH":15371,"BSTAR":9.4016e-05,"MEAN_MOTION_DOT":5.1e-07,"MEAN_MOTION_DDOT":0.0},{"OBJECT_NAME":"ONEWEB-0564","OBJECT_ID":"2023-029F","EPOCH":"2026-04-22T05:25:37.022016","MEAN_MOTION":13.20773086,"ECCENTRICITY":0.0001791,"INCLINATION":87.9131,"RA_OF_ASC_NODE":285.6272,"ARG_OF_PERICENTER":106.472,"MEAN_ANOMALY":253.661,"EPHEMERIS_TYPE":0,"CLASSIFICATION_TYPE":"U","NORAD_CAT_ID":55801,"ELEMENT_SET_NO":999,"REV_AT_EPOCH":15376,"BSTAR":3.3649000000000006e-06,"MEAN_MOTION_DOT":1.4e-07,"MEAN_MOTION_DDOT":0.0},{"OBJECT_NAME":"ONEWEB-0638","OBJECT_ID":"2023-029G","EPOCH":"2026-04-21T21:55:41.728224","MEAN_MOTION":13.1450287,"ECCENTRICITY":0.0002154,"INCLINATION":87.892,"RA_OF_ASC_NODE":300.9888,"ARG_OF_PERICENTER":102.5103,"MEAN_ANOMALY":257.6267,"EPHEMERIS_TYPE":0,"CLASSIFICATION_TYPE":"U","NORAD_CAT_ID":55802,"ELEMENT_SET_NO":999,"REV_AT_EPOCH":15200,"BSTAR":0.00014402000000000002,"MEAN_MOTION_DOT":6.6e-07,"MEAN_MOTION_DDOT":0.0},{"OBJECT_NAME":"ONEWEB-0639","OBJECT_ID":"2023-029H","EPOCH":"2026-04-22T00:04:45.518304","MEAN_MOTION":13.19723635,"ECCENTRICITY":0.0002467,"INCLINATION":87.9157,"RA_OF_ASC_NODE":316.1817,"ARG_OF_PERICENTER":67.8241,"MEAN_ANOMALY":292.3153,"EPHEMERIS_TYPE":0,"CLASSIFICATION_TYPE":"U","NORAD_CAT_ID":55803,"ELEMENT_SET_NO":999,"REV_AT_EPOCH":15149,"BSTAR":0.00010326000000000001,"MEAN_MOTION_DOT":5.4e-07,"MEAN_MOTION_DDOT":0.0}]