ONEWEB-0709             
1 55172U 23004AJ  26112.20250859 -.00000490  00000+0 -14191-2 0  9994
2 55172  87.8924  32.2108 0002023  53.2983 306.8330 13.11418731158538
ONEWEB-0710             
1 55173U 23004AK  26112.16288862  .00000067  00000+0  13951-3 0  9997
2 55173  87.9183  16.9973 0001661  82.5113 277.6207 13.17648251160206
ONEWEB-0711             
1 55174U 23004AL  26112.17368785 -.00000184  00000+0 -55572-3 0  9999
2 55174  87.8919  32.2025 0001319  98.5466 261.5811 13.11415002158491
ONEWEB-0713             
1 55175U 23004AM  26112.26863128 -.00000242  00000+0 -71744-3 0  9995
2 55175  87.8937  32.1834 0001547  87.5747 272.5558 13.11416938158491
ONEWEB-0715             
1 55176U 23004AN  26112.26354440 -.00000493  00000+0 -14271-2 0  9997
2 55176  87.8934  32.1835 0001557  55.8303 304.2973 13.11416979158531
ONEWEB-0716             
1 55177U 23004AP  26112.23207015  .00000114  00000+0  26149-3 0  9996
2 55177  87.9181  16.9848 0002072  79.2375 280.8990 13.17647801160215
ONEWEB-0717             
1 55178U 23004AQ  26112.13926005  .00000094  00000+0  20772-3 0  9996
2 55178  87.9195  16.9864 0001280  93.7493 266.3785 13.17647821160258
ONEWEB-0719             
1 55179U 23004AR  26112.22532046  .00000127  00000+0  29390-3 0  9997
2 55179  87.9190  16.9503 0001986  82.8547 277.2810 13.17648285160217
ONEWEB-0530             
1 55796U 23029A   26111.95466002 -.00000002  00000+0 -37745-4 0  9994
2 55796  87.9125 285.6978 0001752 110.8848 249.2473 13.20773509153722
ONEWEB-0534             
1 55797U 23029B   26111.94203058 -.00000087  00000+0 -24697-3 0  9998
2 55797  87.9131 285.6994 0001915  93.0326 267.1026 13.20773142153728
ONEWEB-0556             
1 55798U 23029C   26111.94837002  .00000019  00000+0  14808-4 0  9998
2 55798  87.9126 285.6993 0002562 104.1610 255.9808 13.20770833153728
ONEWEB-0562             
1 55799U 23029D   26111.93571669 -.00000046  00000+0 -14554-3 0  9991
2 55799  87.9128 285.6824 0002130 118.2271 241.9078 13.20773521153725
ONEWEB-0563             
1 55800U 23029E   26111.92942416  .00000051  00000+0  94016-4 0  9991
2 55800  87.9128 285.7139 0002040  92.5123 267.6244 13.20771912153719
ONEWEB-0564             
1 55801U 23029F   26112.22612294  .00000014  00000+0  33649-5 0  9999
2 55801  87.9131 285.6272 0001791 106.4720 253.6610 13.20773086153762
ONEWEB-0638             
1 55802U 23029G   26111.91367741  .00000066  00000+0  14402-3 0  9990
2 55802  87.8920 300.9888 0002154 102.5103 257.6267 13.14502870152000
ONEWEB-0639             
1 55803U 23029H   26112.00330461  .00000054  00000+0  10326-3 0  9999
2 55803  87.9157 316.1817 0002467  67.8241 292.3153 13.19723635151499
